     2.100          NAVIGATION                              RINEX VERSION / TYPE
fic2rin                                 06/17/2015 00:18:34 PGM / RUN BY / DATE
                                                            END OF HEADER
30 15  6 16 23 59 44.0 -.424128957093D-04  .670752342558D-11  .000000000000D+00
     .130000000000D+02  .133687500000D+03  .447197198987D-08  .170141555102D+01
     .699236989021D-05  .151551899035D-02  .480562448502D-05  .515373482323D+04
     .259184000000D+06 -.596046447754D-07  .905592163789D+00  .726431608200D-07
     .955892651874D+00  .284843750000D+03  .292107233404D+01 -.815426822943D-08
     .321799118511D-09  .100000000000D+01  .184900000000D+04  .000000000000D+00
     .240000000000D+01  .000000000000D+00  .325962901115D-08  .130000000000D+02
     .253926000000D+06  .400000000000D+01
